start=new Date('2022-06-09T00:00:00.000Z').valueOf();
sats=[{"DECAY_DATE":null,"REF_FRAME":"TEME","REV_AT_EPOCH":"885","OBJECT_ID":"2022-045BE","FILE":"3486158","PERIOD":"91.536","ARG_OF_PERICENTER":"9.0218","COUNTRY_CODE":"US","CLASSIFICATION_TYPE":"U","TLE_LINE1":"1 52383U 22045BE  22159.91668981  .00006304  00000-0  49413-4 0  9999","MEAN_MOTION_DDOT":"0.0000000000000","RCS_SIZE":"LARGE","SEMIMAJOR_AXIS":"6728.035","RA_OF_ASC_NODE":"238.1169","EPOCH":"2022-06-08T22:00:01.999584","MEAN_MOTION_DOT":"0.00006304","ELEMENT_SET_NO":"999","APOAPSIS":"351.865","MEAN_ELEMENT_THEORY":"SGP4","OBJECT_NAME":"STARLINK-3811","BSTAR":"0.00004941300000","MEAN_ANOMALY":"12.8010","PERIAPSIS":"347.935","MEAN_MOTION":"15.73151018","ECCENTRICITY":"0.00029210","TIME_SYSTEM":"UTC","NORAD_CAT_ID":"52383","CENTER_NAME":"EARTH","TLE_LINE2":"2 52383  53.2133 238.1169 0002921   9.0218  12.8010 15.73151018  8859","GP_ID":"205643483","SITE":"AFETR","LAUNCH_DATE":"2022-04-29","EPHEMERIS_TYPE":"0","INCLINATION":"53.2133","OBJECT_TYPE":"PAYLOAD"},{"CLASSIFICATION_TYPE":"U","ARG_OF_PERICENTER":"38.2447","PERIOD":"92.927","FILE":"3485745","COUNTRY_CODE":"US","OBJECT_ID":"2022-049A","DECAY_DATE":null,"REF_FRAME":"TEME","REV_AT_EPOCH":"130","OBJECT_NAME":"STARLINK-3870","BSTAR":"-0.01383900000000","MEAN_ELEMENT_THEORY":"SGP4","APOAPSIS":"418.991","MEAN_MOTION_DDOT":"0.0000000000000","ELEMENT_SET_NO":"999","RCS_SIZE":"LARGE","SEMIMAJOR_AXIS":"6796.030","EPOCH":"2022-06-08T14:00:01.000224","RA_OF_ASC_NODE":"103.5937","MEAN_MOTION_DOT":"-0.00720168","TLE_LINE1":"1 52451U 22049A   22159.58334491 -.00720168  00000-0 -13839-1 0  9991","NORAD_CAT_ID":"52451","TIME_SYSTEM":"UTC","MEAN_MOTION":"15.49600738","ECCENTRICITY":"0.00016130","PERIAPSIS":"416.799","MEAN_ANOMALY":"61.7318","INCLINATION":"53.2175","OBJECT_TYPE":"PAYLOAD","EPHEMERIS_TYPE":"0","LAUNCH_DATE":"2022-05-06","GP_ID":"205637774","SITE":"AFETR","CENTER_NAME":"EARTH","TLE_LINE2":"2 52451  53.2175 103.5937 0001613  38.2447  61.7318 15.49600738  1302"},{"TLE_LINE2":"2 52452  53.2177 101.9117 0001804  38.3952 116.6784 15.47803757  5429","CENTER_NAME":"EARTH","SITE":"AFETR","GP_ID":"205642241","EPHEMERIS_TYPE":"0","LAUNCH_DATE":"2022-05-06","OBJECT_TYPE":"PAYLOAD","INCLINATION":"53.2177","MEAN_ANOMALY":"116.6784","PERIAPSIS":"421.927","ECCENTRICITY":"0.00018040","MEAN_MOTION":"15.47803757","TIME_SYSTEM":"UTC","NORAD_CAT_ID":"52452","TLE_LINE1":"1 52452U 22049B   22159.91668981 -.00719091  00000-0 -14720-1 0  9996","ELEMENT_SET_NO":"999","SEMIMAJOR_AXIS":"6801.289","RCS_SIZE":"LARGE","EPOCH":"2022-06-08T22:00:01.999584","RA_OF_ASC_NODE":"101.9117","MEAN_MOTION_DOT":"-0.00719091","MEAN_MOTION_DDOT":"0.0000000000000","MEAN_ELEMENT_THEORY":"SGP4","APOAPSIS":"424.381","BSTAR":"-0.01472000000000","OBJECT_NAME":"STARLINK-3909","REV_AT_EPOCH":"542","DECAY_DATE":null,"REF_FRAME":"TEME","OBJECT_ID":"2022-049B","COUNTRY_CODE":"US","PERIOD":"93.035","ARG_OF_PERICENTER":"38.3952","FILE":"3486094","CLASSIFICATION_TYPE":"U"},{"TLE_LINE1":"1 52453U 22049C   22159.58334491 -.00774217  00000-0 -14733-1 0  9991","MEAN_MOTION_DDOT":"0.0000000000000","SEMIMAJOR_AXIS":"6794.745","RCS_SIZE":"LARGE","EPOCH":"2022-06-08T14:00:01.000224","MEAN_MOTION_DOT":"-0.00774217","RA_OF_ASC_NODE":"103.6178","ELEMENT_SET_NO":"999","APOAPSIS":"417.775","MEAN_ELEMENT_THEORY":"SGP4","OBJECT_NAME":"STARLINK-3872","BSTAR":"-0.01473300000000","REF_FRAME":"TEME","DECAY_DATE":null,"REV_AT_EPOCH":"130","OBJECT_ID":"2022-049C","FILE":"3485745","ARG_OF_PERICENTER":"40.3259","PERIOD":"92.901","COUNTRY_CODE":"US","CLASSIFICATION_TYPE":"U","CENTER_NAME":"EARTH","TLE_LINE2":"2 52453  53.2175 103.6178 0001715  40.3259  61.4389 15.50040542  1308","GP_ID":"205638085","SITE":"AFETR","EPHEMERIS_TYPE":"0","LAUNCH_DATE":"2022-05-06","INCLINATION":"53.2175","OBJECT_TYPE":"PAYLOAD","MEAN_ANOMALY":"61.4389","PERIAPSIS":"415.444","MEAN_MOTION":"15.50040542","ECCENTRICITY":"0.00017150","TIME_SYSTEM":"UTC","NORAD_CAT_ID":"52453"},{"MEAN_MOTION_DDOT":"0.0000000000000","RCS_SIZE":"LARGE","MEAN_MOTION_DOT":"-0.00745064","SEMIMAJOR_AXIS":"6795.402","EPOCH":"2022-06-08T14:00:01.000224","RA_OF_ASC_NODE":"103.6058","ELEMENT_SET_NO":"999","TLE_LINE1":"1 52454U 22049D   22159.58334491 -.00745064  00000-0 -14247-1 0  9990","OBJECT_NAME":"STARLINK-3888","BSTAR":"-0.01424700000000","APOAPSIS":"418.399","MEAN_ELEMENT_THEORY":"SGP4","OBJECT_ID":"2022-049D","DECAY_DATE":null,"REF_FRAME":"TEME","REV_AT_EPOCH":"130","CLASSIFICATION_TYPE":"U","FILE":"3485745","PERIOD":"92.914","ARG_OF_PERICENTER":"39.2568","COUNTRY_CODE":"US","GP_ID":"205637980","SITE":"AFETR","CENTER_NAME":"EARTH","TLE_LINE2":"2 52454  53.2174 103.6058 0001666  39.2568  61.6653 15.49815547  1309","INCLINATION":"53.2174","OBJECT_TYPE":"PAYLOAD","EPHEMERIS_TYPE":"0","LAUNCH_DATE":"2022-05-06","MEAN_MOTION":"15.49815547","ECCENTRICITY":"0.00016660","MEAN_ANOMALY":"61.6653","PERIAPSIS":"416.135","NORAD_CAT_ID":"52454","TIME_SYSTEM":"UTC"},{"LAUNCH_DATE":"2022-05-06","EPHEMERIS_TYPE":"0","OBJECT_TYPE":"PAYLOAD","INCLINATION":"53.2177","TLE_LINE2":"2 52455  53.2177 102.0353 0001547  51.6821 111.8853 15.49632086  5424","CENTER_NAME":"EARTH","SITE":"AFETR","GP_ID":"205642238","TIME_SYSTEM":"UTC","NORAD_CAT_ID":"52455","PERIAPSIS":"416.752","MEAN_ANOMALY":"111.8853","ECCENTRICITY":"0.00015470","MEAN_MOTION":"15.49632086","APOAPSIS":"418.855","MEAN_ELEMENT_THEORY":"SGP4","BSTAR":"-0.01384800000000","OBJECT_NAME":"STARLINK-3890","TLE_LINE1":"1 52455U 22049E   22159.91668981 -.00721336  00000-0 -13848-1 0  9994","RCS_SIZE":"LARGE","SEMIMAJOR_AXIS":"6795.939","EPOCH":"2022-06-08T22:00:01.999584","RA_OF_ASC_NODE":"102.0353","MEAN_MOTION_DOT":"-0.00721336","ELEMENT_SET_NO":"999","MEAN_MOTION_DDOT":"0.0000000000000","COUNTRY_CODE":"US","FILE":"3486094","PERIOD":"92.925","ARG_OF_PERICENTER":"51.6821","CLASSIFICATION_TYPE":"U","REV_AT_EPOCH":"542","REF_FRAME":"TEME","DECAY_DATE":null,"OBJECT_ID":"2022-049E"},{"INCLINATION":"53.2174","OBJECT_TYPE":"PAYLOAD","EPHEMERIS_TYPE":"0","LAUNCH_DATE":"2022-05-06","GP_ID":"205643521","SITE":"AFETR","CENTER_NAME":"EARTH","TLE_LINE2":"2 52456  53.2174 102.0463 0001907  37.7451 126.8079 15.49729231  5423","NORAD_CAT_ID":"52456","TIME_SYSTEM":"UTC","MEAN_MOTION":"15.49729231","ECCENTRICITY":"0.00019070","PERIAPSIS":"416.224","MEAN_ANOMALY":"126.8079","OBJECT_NAME":"STARLINK-3896","BSTAR":"-0.01080600000000","APOAPSIS":"418.815","MEAN_ELEMENT_THEORY":"SGP4","MEAN_MOTION_DDOT":"0.0000000000000","RCS_SIZE":"LARGE","RA_OF_ASC_NODE":"102.0463","SEMIMAJOR_AXIS":"6795.655","MEAN_MOTION_DOT":"-0.00568140","EPOCH":"2022-06-08T22:00:01.999584","ELEMENT_SET_NO":"999","TLE_LINE1":"1 52456U 22049F   22159.91668981 -.00568140  00000-0 -10806-1 0  9998","CLASSIFICATION_TYPE":"U","FILE":"3486160","ARG_OF_PERICENTER":"37.7451","PERIOD":"92.919","COUNTRY_CODE":"US","OBJECT_ID":"2022-049F","REF_FRAME":"TEME","DECAY_DATE":null,"REV_AT_EPOCH":"542"},{"CLASSIFICATION_TYPE":"U","FILE":"3486094","PERIOD":"92.899","ARG_OF_PERICENTER":"71.7579","COUNTRY_CODE":"US","OBJECT_ID":"2022-049G","DECAY_DATE":null,"REF_FRAME":"TEME","REV_AT_EPOCH":"542","OBJECT_NAME":"STARLINK-3899","BSTAR":"-0.01474000000000","APOAPSIS":"417.449","MEAN_ELEMENT_THEORY":"SGP4","MEAN_MOTION_DDOT":"0.0000000000000","SEMIMAJOR_AXIS":"6794.642","RCS_SIZE":"LARGE","RA_OF_ASC_NODE":"102.0575","MEAN_MOTION_DOT":"-0.00775388","EPOCH":"2022-06-08T22:00:01.999584","ELEMENT_SET_NO":"999","TLE_LINE1":"1 52457U 22049G   22159.91668981 -.00775388  00000-0 -14740-1 0  9994","NORAD_CAT_ID":"52457","TIME_SYSTEM":"UTC","MEAN_MOTION":"15.50075540","ECCENTRICITY":"0.00013860","PERIAPSIS":"415.566","MEAN_ANOMALY":"93.5655","INCLINATION":"53.2173","OBJECT_TYPE":"PAYLOAD","EPHEMERIS_TYPE":"0","LAUNCH_DATE":"2022-05-06","GP_ID":"205641849","SITE":"AFETR","CENTER_NAME":"EARTH","TLE_LINE2":"2 52457  53.2173 102.0575 0001386  71.7579  93.5655 15.50075540  5426"},{"INCLINATION":"53.2173","OBJECT_TYPE":"PAYLOAD","LAUNCH_DATE":"2022-05-06","EPHEMERIS_TYPE":"0","GP_ID":"205642239","SITE":"AFETR","CENTER_NAME":"EARTH","TLE_LINE2":"2 52458  53.2173 102.0675 0001643  36.0635 130.3939 15.49881261  5429","NORAD_CAT_ID":"52458","TIME_SYSTEM":"UTC","MEAN_MOTION":"15.49881261","ECCENTRICITY":"0.00016430","MEAN_ANOMALY":"130.3939","PERIAPSIS":"415.959","OBJECT_NAME":"STARLINK-3898","BSTAR":"-0.00892720000000","APOAPSIS":"418.192","MEAN_ELEMENT_THEORY":"SGP4","MEAN_MOTION_DDOT":"0.0000000000000","SEMIMAJOR_AXIS":"6795.210","RCS_SIZE":"LARGE","RA_OF_ASC_NODE":"102.0675","EPOCH":"2022-06-08T22:00:01.999584","MEAN_MOTION_DOT":"-0.00477384","ELEMENT_SET_NO":"999","TLE_LINE1":"1 52458U 22049H   22159.91668981 -.00477384  00000-0 -89272-2 0  9993","CLASSIFICATION_TYPE":"U","FILE":"3486094","PERIOD":"92.910","ARG_OF_PERICENTER":"36.0635","COUNTRY_CODE":"US","OBJECT_ID":"2022-049H","REF_FRAME":"TEME","DECAY_DATE":null,"REV_AT_EPOCH":"542"},{"CENTER_NAME":"EARTH","TLE_LINE2":"2 52459  53.2168 100.4767 0002246  27.2733 174.1034 15.73153163  5443","GP_ID":"205641848","SITE":"AFETR","EPHEMERIS_TYPE":"0","LAUNCH_DATE":"2022-05-06","INCLINATION":"53.2168","OBJECT_TYPE":"PAYLOAD","MEAN_ANOMALY":"174.1034","PERIAPSIS":"348.383","MEAN_MOTION":"15.73153163","ECCENTRICITY":"0.00022460","TIME_SYSTEM":"UTC","NORAD_CAT_ID":"52459","TLE_LINE1":"1 52459U 22049J   22159.91668981 -.00071949  00000-0 -51357-3 0  9995","MEAN_MOTION_DDOT":"0.0000000000000","RCS_SIZE":"LARGE","SEMIMAJOR_AXIS":"6728.029","EPOCH":"2022-06-08T22:00:01.999584","RA_OF_ASC_NODE":"100.4767","MEAN_MOTION_DOT":"-0.00071949","ELEMENT_SET_NO":"999","APOAPSIS":"351.405","MEAN_ELEMENT_THEORY":"SGP4","OBJECT_NAME":"STARLINK-3856","BSTAR":"-0.00051357000000","REF_FRAME":"TEME","DECAY_DATE":null,"REV_AT_EPOCH":"544","OBJECT_ID":"2022-049J","FILE":"3486094","ARG_OF_PERICENTER":"27.2733","PERIOD":"91.536","COUNTRY_CODE":"US","CLASSIFICATION_TYPE":"U"}];
